GLOBALSTAR M057         
1 25943U 99058A   25353.76783761 -.00000071  00000+0  19739-3 0  9997
2 25943  51.9950 181.5232 0003316  51.3111 308.8035 12.24832245189672
GLOBALSTAR M059         
1 25944U 99058B   25353.49819279 -.00000081  00000+0  62945-4 0  9991
2 25944  52.0035  65.8414 0000379 120.7820 252.7145 11.99988194596294
GLOBALSTAR M056         
1 25945U 99058C   25353.95739685 -.00000096  00000+0 -93982-4 0  9997
2 25945  51.9979  61.7969 0001301 173.2027 357.5829 12.04780990185016
GLOBALSTAR M031         
1 25946U 99058D   25351.65166691 -.00000043  00000+0  48267-3 0  9990
2 25946  51.9983 309.4344 0000939 181.2254 351.7896 12.16044933186865
GLOBALSTAR M039         
1 25961U 99062A   25353.92086229 -.00000085  00000+0  10253-3 0  9992
2 25961  51.9857  63.0002 0002692  52.7395 307.3717 12.62339701203671
GLOBALSTAR M034         
1 25962U 99062B   25353.95868737 -.00000043  00000+0  60731-3 0  9998
2 25962  51.9865 248.4880 0015139  34.3756 339.1369 11.79454133160314
GLOBALSTAR M029         
1 25963U 99062C   25354.18669963 -.00000036  00000+0  62286-3 0  9994
2 25963  51.9826 311.8564 0002547 111.4356 262.6875 11.99904662191458
GLOBALSTAR M061         
1 25964U 99062D   25354.21798435 -.00000092  00000+0 -19071-3 0  9993
2 25964  51.9804  74.3154 0005204 314.8958  69.6898 11.76777809143083
